CCSDS_OMM_VERS = 2.0
CREATION_DATE  = 
ORIGINATOR     = 

OBJECT_NAME    = GUOWANG GROUP 20 OBJECT J
OBJECT_ID      = 2026-047J
CENTER_NAME    = EARTH
REF_FRAME      = TEME
TIME_SYSTEM    = UTC
MEAN_ELEMENT_THEORY = SGP/SGP4

EPOCH          = 2026-03-29T05:59:36.933792
MEAN_MOTION    = 13.93924120
ECCENTRICITY   = .00009825
INCLINATION    = 50.0061
RA_OF_ASC_NODE = 350.8887
ARG_OF_PERICENTER = 211.4979
MEAN_ANOMALY   = 148.5862

EPHEMERIS_TYPE = 0
CLASSIFICATION_TYPE = U
NORAD_CAT_ID   = 68137
ELEMENT_SET_NO = 999
REV_AT_EPOCH   = 231
BSTAR          = .19244539E-4
MEAN_MOTION_DOT = -.122E-5
MEAN_MOTION_DDOT = 0

CCSDS_OMM_VERS = 2.0
CREATION_DATE  = 
ORIGINATOR     = 

OBJECT_NAME    = CZ-8A R/B
OBJECT_ID      = 2026-047K
CENTER_NAME    = EARTH
REF_FRAME      = TEME
TIME_SYSTEM    = UTC
MEAN_ELEMENT_THEORY = SGP/SGP4

EPOCH          = 2026-03-31T04:45:26.478432
MEAN_MOTION    = 14.12232341
ECCENTRICITY   = .0044754
INCLINATION    = 49.9536
RA_OF_ASC_NODE = 341.7351
ARG_OF_PERICENTER = 212.1736
MEAN_ANOMALY   = 147.6439

EPHEMERIS_TYPE = 0
CLASSIFICATION_TYPE = U
NORAD_CAT_ID   = 68138
ELEMENT_SET_NO = 999
REV_AT_EPOCH   = 259
BSTAR          = .17039E-4
MEAN_MOTION_DOT = -.122E-5
MEAN_MOTION_DDOT = 0

CCSDS_OMM_VERS = 2.0
CREATION_DATE  = 
ORIGINATOR     = 

OBJECT_NAME    = SHIYAN-30 03
OBJECT_ID      = 2026-048A
CENTER_NAME    = EARTH
REF_FRAME      = TEME
TIME_SYSTEM    = UTC
MEAN_ELEMENT_THEORY = SGP/SGP4

EPOCH          = 2026-03-30T22:07:35.914944
MEAN_MOTION    = 14.91739769
ECCENTRICITY   = .00029071
INCLINATION    = 35.0014
RA_OF_ASC_NODE = 16.8194
ARG_OF_PERICENTER = 17.5005
MEAN_ANOMALY   = 342.5800

EPHEMERIS_TYPE = 0
CLASSIFICATION_TYPE = U
NORAD_CAT_ID   = 68139
ELEMENT_SET_NO = 999
REV_AT_EPOCH   = 267
BSTAR          = .36204634E-3
MEAN_MOTION_DOT = .3689E-4
MEAN_MOTION_DDOT = 0

CCSDS_OMM_VERS = 2.0
CREATION_DATE  = 
ORIGINATOR     = 

OBJECT_NAME    = SHIYAN-30 04
OBJECT_ID      = 2026-048B
CENTER_NAME    = EARTH
REF_FRAME      = TEME
TIME_SYSTEM    = UTC
MEAN_ELEMENT_THEORY = SGP/SGP4

EPOCH          = 2026-03-30T22:08:36.036384
MEAN_MOTION    = 14.91747836
ECCENTRICITY   = .00014275
INCLINATION    = 34.9929
RA_OF_ASC_NODE = 16.8198
ARG_OF_PERICENTER = 13.9215
MEAN_ANOMALY   = 346.1529

EPHEMERIS_TYPE = 0
CLASSIFICATION_TYPE = U
NORAD_CAT_ID   = 68140
ELEMENT_SET_NO = 999
REV_AT_EPOCH   = 267
BSTAR          = .34481063E-3
MEAN_MOTION_DOT = .3513E-4
MEAN_MOTION_DDOT = 0

CCSDS_OMM_VERS = 2.0
CREATION_DATE  = 
ORIGINATOR     = 

OBJECT_NAME    = CZ-2D R/B
OBJECT_ID      = 2026-048C
CENTER_NAME    = EARTH
REF_FRAME      = TEME
TIME_SYSTEM    = UTC
MEAN_ELEMENT_THEORY = SGP/SGP4

EPOCH          = 2026-03-31T03:30:10.092096
MEAN_MOTION    = 14.95573261
ECCENTRICITY   = .0015291
INCLINATION    = 35.1310
RA_OF_ASC_NODE = 15.2026
ARG_OF_PERICENTER = 155.2168
MEAN_ANOMALY   = 204.9278

EPHEMERIS_TYPE = 0
CLASSIFICATION_TYPE = U
NORAD_CAT_ID   = 68141
ELEMENT_SET_NO = 999
REV_AT_EPOCH   = 271
BSTAR          = .21223E-3
MEAN_MOTION_DOT = .2375E-4
MEAN_MOTION_DDOT = 0

CCSDS_OMM_VERS = 2.0
CREATION_DATE  = 
ORIGINATOR     = 

OBJECT_NAME    = STARLINK-36604
OBJECT_ID      = 2026-049A
CENTER_NAME    = EARTH
REF_FRAME      = TEME
TIME_SYSTEM    = UTC
MEAN_ELEMENT_THEORY = SGP/SGP4

EPOCH          = 2026-03-31T04:00:00.999936
MEAN_MOTION    = 15.77613375
ECCENTRICITY   = .0001744
INCLINATION    = 97.2834
RA_OF_ASC_NODE = 110.4871
ARG_OF_PERICENTER = 98.5989
MEAN_ANOMALY   = 133.8080

EPHEMERIS_TYPE = 0
CLASSIFICATION_TYPE = U
NORAD_CAT_ID   = 68142
ELEMENT_SET_NO = 999
REV_AT_EPOCH   = 408
BSTAR          = -.13113E-1
MEAN_MOTION_DOT = -.1898002E-1
MEAN_MOTION_DDOT = 0

CCSDS_OMM_VERS = 2.0
CREATION_DATE  = 
ORIGINATOR     = 

OBJECT_NAME    = STARLINK-36995
OBJECT_ID      = 2026-049B
CENTER_NAME    = EARTH
REF_FRAME      = TEME
TIME_SYSTEM    = UTC
MEAN_ELEMENT_THEORY = SGP/SGP4

EPOCH          = 2026-03-31T02:58:59.641824
MEAN_MOTION    = 15.80876630
ECCENTRICITY   = .0001271
INCLINATION    = 97.2834
RA_OF_ASC_NODE = 110.4445
ARG_OF_PERICENTER = 85.9128
MEAN_ANOMALY   = 274.2286

EPHEMERIS_TYPE = 0
CLASSIFICATION_TYPE = U
NORAD_CAT_ID   = 68143
ELEMENT_SET_NO = 999
REV_AT_EPOCH   = 279
BSTAR          = .62301E-3
MEAN_MOTION_DOT = .121201E-2
MEAN_MOTION_DDOT = 0

CCSDS_OMM_VERS = 2.0
CREATION_DATE  = 
ORIGINATOR     = 

OBJECT_NAME    = STARLINK-37020
OBJECT_ID      = 2026-049C
CENTER_NAME    = EARTH
REF_FRAME      = TEME
TIME_SYSTEM    = UTC
MEAN_ELEMENT_THEORY = SGP/SGP4

EPOCH          = 2026-03-30T20:52:13.052064
MEAN_MOTION    = 15.80943981
ECCENTRICITY   = .00017549
INCLINATION    = 97.2838
RA_OF_ASC_NODE = 110.1785
ARG_OF_PERICENTER = 123.1862
MEAN_ANOMALY   = 236.9575

EPHEMERIS_TYPE = 0
CLASSIFICATION_TYPE = U
NORAD_CAT_ID   = 68144
ELEMENT_SET_NO = 999
REV_AT_EPOCH   = 275
BSTAR          = .12711803E-2
MEAN_MOTION_DOT = .251983E-2
MEAN_MOTION_DDOT = 0

CCSDS_OMM_VERS = 2.0
CREATION_DATE  = 
ORIGINATOR     = 

OBJECT_NAME    = STARLINK-36244
OBJECT_ID      = 2026-049D
CENTER_NAME    = EARTH
REF_FRAME      = TEME
TIME_SYSTEM    = UTC
MEAN_ELEMENT_THEORY = SGP/SGP4

EPOCH          = 2026-03-31T04:00:00.999936
MEAN_MOTION    = 15.75216146
ECCENTRICITY   = .0001742
INCLINATION    = 97.2836
RA_OF_ASC_NODE = 110.4634
ARG_OF_PERICENTER = 84.4350
MEAN_ANOMALY   = 98.4745

EPHEMERIS_TYPE = 0
CLASSIFICATION_TYPE = U
NORAD_CAT_ID   = 68145
ELEMENT_SET_NO = 999
REV_AT_EPOCH   = 408
BSTAR          = -.84576E-3
MEAN_MOTION_DOT = -.124608E-2
MEAN_MOTION_DDOT = 0

CCSDS_OMM_VERS = 2.0
CREATION_DATE  = 
ORIGINATOR     = 

OBJECT_NAME    = STARLINK-36980
OBJECT_ID      = 2026-049E
CENTER_NAME    = EARTH
REF_FRAME      = TEME
TIME_SYSTEM    = UTC
MEAN_ELEMENT_THEORY = SGP/SGP4

EPOCH          = 2026-03-31T02:55:44.865120
MEAN_MOTION    = 15.80875824
ECCENTRICITY   = .0001289
INCLINATION    = 97.2839
RA_OF_ASC_NODE = 110.4475
ARG_OF_PERICENTER = 86.6559
MEAN_ANOMALY   = 273.4856

EPHEMERIS_TYPE = 0
CLASSIFICATION_TYPE = U
NORAD_CAT_ID   = 68146
ELEMENT_SET_NO = 999
REV_AT_EPOCH   = 279
BSTAR          = .51927E-3
MEAN_MOTION_DOT = .100753E-2
MEAN_MOTION_DDOT = 0

CCSDS_OMM_VERS = 2.0
CREATION_DATE  = 
ORIGINATOR     = 

OBJECT_NAME    = STARLINK-37055
OBJECT_ID      = 2026-049F
CENTER_NAME    = EARTH
REF_FRAME      = TEME
TIME_SYSTEM    = UTC
MEAN_ELEMENT_THEORY = SGP/SGP4

EPOCH          = 2026-03-31T02:57:54.732960
MEAN_MOTION    = 15.80899935
ECCENTRICITY   = .0001464
INCLINATION    = 97.2833
RA_OF_ASC_NODE = 110.4450
ARG_OF_PERICENTER = 116.4925
MEAN_ANOMALY   = 243.6493

EPHEMERIS_TYPE = 0
CLASSIFICATION_TYPE = U
NORAD_CAT_ID   = 68147
ELEMENT_SET_NO = 999
REV_AT_EPOCH   = 279
BSTAR          = .87772E-3
MEAN_MOTION_DOT = .171996E-2
MEAN_MOTION_DDOT = 0

CCSDS_OMM_VERS = 2.0
CREATION_DATE  = 
ORIGINATOR     = 

OBJECT_NAME    = STARLINK-36981
OBJECT_ID      = 2026-049G
CENTER_NAME    = EARTH
REF_FRAME      = TEME
TIME_SYSTEM    = UTC
MEAN_ELEMENT_THEORY = SGP/SGP4

EPOCH          = 2026-03-31T02:53:35.042208
MEAN_MOTION    = 15.80885890
ECCENTRICITY   = .000149
INCLINATION    = 97.2841
RA_OF_ASC_NODE = 110.4490
ARG_OF_PERICENTER = 90.2205
MEAN_ANOMALY   = 269.9234

EPHEMERIS_TYPE = 0
CLASSIFICATION_TYPE = U
NORAD_CAT_ID   = 68148
ELEMENT_SET_NO = 999
REV_AT_EPOCH   = 279
BSTAR          = .61017E-3
MEAN_MOTION_DOT = .118716E-2
MEAN_MOTION_DDOT = 0

