GUOWANG GROUP 20 OBJECT*
1 68137U 26047J   26088.24973303 -.00000122  00000+0  19245-4 0  9999
2 68137  50.0061 350.8887 0000982 211.4979 148.5862 13.93924120  2314
CZ-8A R/B               
1 68138U 26047K   26090.19822313 -.00000122  00000+0  17039-4 0  9990
2 68138  49.9536 341.7351 0044754 212.1736 147.6439 14.12232341  2597
SHIYAN-30 03            
1 68139U 26048A   26089.92194346  .00003689  00000+0  36205-3 0  9994
2 68139  35.0014  16.8194 0002907  17.5005 342.5800 14.91739769  2670
SHIYAN-30 04            
1 68140U 26048B   26089.92263931  .00003513  00000+0  34481-3 0  9993
2 68140  34.9929  16.8198 0001427  13.9215 346.1529 14.91747836  2670
CZ-2D R/B               
1 68141U 26048C   26090.14595014  .00002375  00000+0  21223-3 0  9995
2 68141  35.1310  15.2026 0015291 155.2168 204.9278 14.95573261  2712
STARLINK-36604          
1 68142U 26049A   26090.16667824 -.01898002  00000+0 -13113-1 0  9998
2 68142  97.2834 110.4871 0001744  98.5989 133.8080 15.77613375  4082
STARLINK-36995          
1 68143U 26049B   26090.12430141  .00121201  00000+0  62301-3 0  9997
2 68143  97.2834 110.4445 0001271  85.9128 274.2286 15.80876630  2793
STARLINK-37020          
1 68144U 26049C   26089.86959551  .00251983  00000+0  12712-2 0  9999
2 68144  97.2838 110.1785 0001754 123.1862 236.9575 15.80943981  2754
STARLINK-36244          
1 68145U 26049D   26090.16667824 -.00124608  00000+0 -84576-3 0  9997
2 68145  97.2836 110.4634 0001742  84.4350  98.4745 15.75216146  4085
STARLINK-36980          
1 68146U 26049E   26090.12204705  .00100753  00000+0  51927-3 0  9996
2 68146  97.2839 110.4475 0001289  86.6559 273.4856 15.80875824  2797
STARLINK-37055          
1 68147U 26049F   26090.12355015  .00171996  00000+0  87772-3 0  9992
2 68147  97.2833 110.4450 0001464 116.4925 243.6493 15.80899935  2794
STARLINK-36981          
1 68148U 26049G   26090.12054447  .00118716  00000+0  61017-3 0  9993
2 68148  97.2841 110.4490 0001490  90.2205 269.9234 15.80885890  2796
